GLOBALSTAR M094         
1 39074U 13005C   25228.67343223 -.00000102  00000+0  97201-5 0  9998
2 39074  51.9945 357.9515 0001017  90.2985 269.7998 12.62272654580016
GLOBALSTAR M096         
1 39075U 13005D   25228.84486826 -.00000114  00000+0 -57163-4 0  9991
2 39075  52.0081  45.9927 0000976  70.3617 289.7355 12.62266129578954
GLOBALSTAR M078         
1 39076U 13005E   25228.66028769 -.00000035  00000+0  38369-3 0  9997
2 39076  51.9870 130.9850 0000869 352.3419   7.7434 12.62261491577551
GLOBALSTAR M095         
1 39077U 13005F   25228.44868153 -.00000074  00000+0  16391-3 0  9997
2 39077  52.0077 128.7999 0000952  27.7051 332.3866 12.62259363577382
GLOBALSTAR M087         
1 52888U 22064A   25228.38442690 -.00000096  00000+0  45229-4 0  9991
2 52888  51.9983 270.4227 0000295  83.1246 276.9654 12.62300890152640
